[{"OBJECT_NAME":"STARLINK-36393","OBJECT_ID":"2026-034K","EPOCH":"2026-03-07T06:13:24.316608","MEAN_MOTION":15.81049703,"ECCENTRICITY":6.143e-5,"INCLINATION":53.1594,"RA_OF_ASC_NODE":223.4566,"ARG_OF_PERICENTER":287.6995,"MEAN_ANOMALY":72.3961,"EPHEMERIS_TYPE":0,"CLASSIFICATION_TYPE":"U","NORAD_CAT_ID":67859,"ELEMENT_SET_NO":999,"REV_AT_EPOCH":355,"BSTAR":0.0022581225,"MEAN_MOTION_DOT":0.00474228,"MEAN_MOTION_DDOT":0},{"OBJECT_NAME":"STARLINK-35873","OBJECT_ID":"2026-034L","EPOCH":"2026-03-07T06:12:19.616832","MEAN_MOTION":15.8100166,"ECCENTRICITY":5.96e-5,"INCLINATION":53.1592,"RA_OF_ASC_NODE":223.4516,"ARG_OF_PERICENTER":247.7603,"MEAN_ANOMALY":112.3357,"EPHEMERIS_TYPE":0,"CLASSIFICATION_TYPE":"U","NORAD_CAT_ID":67860,"ELEMENT_SET_NO":999,"REV_AT_EPOCH":358,"BSTAR":0.0017626249,"MEAN_MOTION_DOT":0.00364447,"MEAN_MOTION_DDOT":0},{"OBJECT_NAME":"STARLINK-36325","OBJECT_ID":"2026-034M","EPOCH":"2026-03-07T06:11:14.540352","MEAN_MOTION":15.8113297,"ECCENTRICITY":6.27e-5,"INCLINATION":53.1591,"RA_OF_ASC_NODE":223.4467,"ARG_OF_PERICENTER":322.1877,"MEAN_ANOMALY":37.9101,"EPHEMERIS_TYPE":0,"CLASSIFICATION_TYPE":"U","NORAD_CAT_ID":67861,"ELEMENT_SET_NO":999,"REV_AT_EPOCH":355,"BSTAR":0.0030876535,"MEAN_MOTION_DOT":0.00666132,"MEAN_MOTION_DDOT":0},{"OBJECT_NAME":"STARLINK-36332","OBJECT_ID":"2026-034N","EPOCH":"2026-03-07T07:41:11.918112","MEAN_MOTION":15.80975246,"ECCENTRICITY":6.72e-5,"INCLINATION":53.1589,"RA_OF_ASC_NODE":223.1251,"ARG_OF_PERICENTER":36.6693,"MEAN_ANOMALY":323.4376,"EPHEMERIS_TYPE":0,"CLASSIFICATION_TYPE":"U","NORAD_CAT_ID":67862,"ELEMENT_SET_NO":999,"REV_AT_EPOCH":356,"BSTAR":0.0013915535,"MEAN_MOTION_DOT":0.00284536,"MEAN_MOTION_DDOT":0},{"OBJECT_NAME":"STARLINK-36835","OBJECT_ID":"2026-034P","EPOCH":"2026-03-07T06:09:05.292864","MEAN_MOTION":15.80997772,"ECCENTRICITY":9.398e-5,"INCLINATION":53.1596,"RA_OF_ASC_NODE":223.4356,"ARG_OF_PERICENTER":0.2957,"MEAN_ANOMALY":359.8067,"EPHEMERIS_TYPE":0,"CLASSIFICATION_TYPE":"U","NORAD_CAT_ID":67863,"ELEMENT_SET_NO":999,"REV_AT_EPOCH":355,"BSTAR":0.0016874963,"MEAN_MOTION_DOT":0.00348142,"MEAN_MOTION_DDOT":0},{"OBJECT_NAME":"STARLINK-36831","OBJECT_ID":"2026-034Q","EPOCH":"2026-03-06T22:32:49.741440","MEAN_MOTION":15.81010362,"ECCENTRICITY":7.589e-5,"INCLINATION":53.1594,"RA_OF_ASC_NODE":225.0155,"ARG_OF_PERICENTER":101.9861,"MEAN_ANOMALY":258.1247,"EPHEMERIS_TYPE":0,"CLASSIFICATION_TYPE":"U","NORAD_CAT_ID":67864,"ELEMENT_SET_NO":999,"REV_AT_EPOCH":350,"BSTAR":0.0015147655,"MEAN_MOTION_DOT":0.00311267,"MEAN_MOTION_DDOT":0},{"OBJECT_NAME":"STARLINK-36738","OBJECT_ID":"2026-034R","EPOCH":"2026-03-06T22:31:44.829120","MEAN_MOTION":15.80994806,"ECCENTRICITY":8.688e-5,"INCLINATION":53.1595,"RA_OF_ASC_NODE":225.0093,"ARG_OF_PERICENTER":46.7739,"MEAN_ANOMALY":313.3356,"EPHEMERIS_TYPE":0,"CLASSIFICATION_TYPE":"U","NORAD_CAT_ID":67865,"ELEMENT_SET_NO":999,"REV_AT_EPOCH":350,"BSTAR":0.0011984405,"MEAN_MOTION_DOT":0.00244007,"MEAN_MOTION_DDOT":0},{"OBJECT_NAME":"STARLINK-36780","OBJECT_ID":"2026-034S","EPOCH":"2026-03-07T06:05:50.816832","MEAN_MOTION":15.81126297,"ECCENTRICITY":0.00013048,"INCLINATION":53.1594,"RA_OF_ASC_NODE":223.419,"ARG_OF_PERICENTER":326.9803,"MEAN_ANOMALY":33.1139,"EPHEMERIS_TYPE":0,"CLASSIFICATION_TYPE":"U","NORAD_CAT_ID":67866,"ELEMENT_SET_NO":999,"REV_AT_EPOCH":355,"BSTAR":0.0034605981,"MEAN_MOTION_DOT":0.00754159,"MEAN_MOTION_DDOT":0},{"OBJECT_NAME":"STARLINK-36761","OBJECT_ID":"2026-034T","EPOCH":"2026-03-06T22:29:35.085696","MEAN_MOTION":15.81018195,"ECCENTRICITY":8.724e-5,"INCLINATION":53.1599,"RA_OF_ASC_NODE":224.9989,"ARG_OF_PERICENTER":47.669,"MEAN_ANOMALY":312.4406,"EPHEMERIS_TYPE":0,"CLASSIFICATION_TYPE":"U","NORAD_CAT_ID":67867,"ELEMENT_SET_NO":999,"REV_AT_EPOCH":350,"BSTAR":0.0014150293,"MEAN_MOTION_DOT":0.00290107,"MEAN_MOTION_DDOT":0},{"OBJECT_NAME":"STARLINK-36762","OBJECT_ID":"2026-034U","EPOCH":"2026-03-07T06:03:40.877280","MEAN_MOTION":15.81006958,"ECCENTRICITY":6.607e-5,"INCLINATION":53.1595,"RA_OF_ASC_NODE":223.41,"ARG_OF_PERICENTER":349.005,"MEAN_ANOMALY":11.0958,"EPHEMERIS_TYPE":0,"CLASSIFICATION_TYPE":"U","NORAD_CAT_ID":67868,"ELEMENT_SET_NO":999,"REV_AT_EPOCH":355,"BSTAR":0.001578169,"MEAN_MOTION_DOT":0.00324793,"MEAN_MOTION_DDOT":0},{"OBJECT_NAME":"STARLINK-36779","OBJECT_ID":"2026-034V","EPOCH":"2026-03-07T06:02:36.193920","MEAN_MOTION":15.81098045,"ECCENTRICITY":7.204e-5,"INCLINATION":53.1594,"RA_OF_ASC_NODE":223.4047,"ARG_OF_PERICENTER":315.1538,"MEAN_ANOMALY":44.9426,"EPHEMERIS_TYPE":0,"CLASSIFICATION_TYPE":"U","NORAD_CAT_ID":67869,"ELEMENT_SET_NO":999,"REV_AT_EPOCH":355,"BSTAR":0.0028903228,"MEAN_MOTION_DOT":0.00619042,"MEAN_MOTION_DDOT":0},{"OBJECT_NAME":"STARLINK-36770","OBJECT_ID":"2026-034W","EPOCH":"2026-03-07T06:00:26.745984","MEAN_MOTION":15.809775,"ECCENTRICITY":8.618e-5,"INCLINATION":53.1598,"RA_OF_ASC_NODE":223.3943,"ARG_OF_PERICENTER":323.5928,"MEAN_ANOMALY":36.5036,"EPHEMERIS_TYPE":0,"CLASSIFICATION_TYPE":"U","NORAD_CAT_ID":67870,"ELEMENT_SET_NO":999,"REV_AT_EPOCH":355,"BSTAR":0.0015332721,"MEAN_MOTION_DOT":0.00314728,"MEAN_MOTION_DDOT":0},{"OBJECT_NAME":"STARLINK-36769","OBJECT_ID":"2026-034X","EPOCH":"2026-03-07T06:01:31.275552","MEAN_MOTION":15.81087448,"ECCENTRICITY":5.621e-5,"INCLINATION":53.1596,"RA_OF_ASC_NODE":223.3995,"ARG_OF_PERICENTER":288.6554,"MEAN_ANOMALY":71.4408,"EPHEMERIS_TYPE":0,"CLASSIFICATION_TYPE":"U","NORAD_CAT_ID":67871,"ELEMENT_SET_NO":999,"REV_AT_EPOCH":355,"BSTAR":0.0027869677,"MEAN_MOTION_DOT":0.00594905,"MEAN_MOTION_DDOT":0},{"OBJECT_NAME":"STARLINK-36786","OBJECT_ID":"2026-034Y","EPOCH":"2026-03-07T05:59:21.790464","MEAN_MOTION":15.81057806,"ECCENTRICITY":2.674e-5,"INCLINATION":53.1596,"RA_OF_ASC_NODE":223.3895,"ARG_OF_PERICENTER":359.7903,"MEAN_ANOMALY":0.312,"EPHEMERIS_TYPE":0,"CLASSIFICATION_TYPE":"U","NORAD_CAT_ID":67872,"ELEMENT_SET_NO":999,"REV_AT_EPOCH":355,"BSTAR":0.0023275204,"MEAN_MOTION_DOT":0.00489941,"MEAN_MOTION_DDOT":0},{"OBJECT_NAME":"STARLINK-36783","OBJECT_ID":"2026-034Z","EPOCH":"2026-03-07T07:29:18.942720","MEAN_MOTION":15.80964045,"ECCENTRICITY":0.00011038,"INCLINATION":53.1596,"RA_OF_ASC_NODE":223.0671,"ARG_OF_PERICENTER":8.2708,"MEAN_ANOMALY":351.8333,"EPHEMERIS_TYPE":0,"CLASSIFICATION_TYPE":"U","NORAD_CAT_ID":67873,"ELEMENT_SET_NO":999,"REV_AT_EPOCH":356,"BSTAR":0.0014299596,"MEAN_MOTION_DOT":0.00292525,"MEAN_MOTION_DDOT":0},{"OBJECT_NAME":"STARLINK-36730","OBJECT_ID":"2026-034AA","EPOCH":"2026-03-07T05:57:11.877696","MEAN_MOTION":15.81113958,"ECCENTRICITY":6.042e-5,"INCLINATION":53.1595,"RA_OF_ASC_NODE":223.3792,"ARG_OF_PERICENTER":323.3289,"MEAN_ANOMALY":36.7693,"EPHEMERIS_TYPE":0,"CLASSIFICATION_TYPE":"U","NORAD_CAT_ID":67874,"ELEMENT_SET_NO":999,"REV_AT_EPOCH":355,"BSTAR":0.0029449716,"MEAN_MOTION_DOT":0.00632221,"MEAN_MOTION_DDOT":0}]
