STARLINK-36393          
1 67859U 26034K   26066.25930922  .00474228  00000+0  22581-2 0  9998
2 67859  53.1594 223.4566 0000614 287.6995  72.3961 15.81049703  3558
STARLINK-35873          
1 67860U 26034L   26066.25856038  .00364447  00000+0  17626-2 0  9990
2 67860  53.1592 223.4516 0000596 247.7603 112.3357 15.81001660  3582
STARLINK-36325          
1 67861U 26034M   26066.25780718  .00666132  00000+0  30877-2 0  9991
2 67861  53.1591 223.4467 0000627 322.1877  37.9101 15.81132970  3558
STARLINK-36332          
1 67862U 26034N   26066.32027683  .00284536  00000+0  13916-2 0  9994
2 67862  53.1589 223.1251 0000672  36.6693 323.4376 15.80975246  3565
STARLINK-36835          
1 67863U 26034P   26066.25631126  .00348142  00000+0  16875-2 0  9991
2 67863  53.1596 223.4356 0000939   0.2957 359.8067 15.80997772  3556
STARLINK-36831          
1 67864U 26034Q   26065.93946460  .00311267  00000+0  15148-2 0  9996
2 67864  53.1594 225.0155 0000758 101.9861 258.1247 15.81010362  3500
STARLINK-36738          
1 67865U 26034R   26065.93871330  .00244007  00000+0  11984-2 0  9991
2 67865  53.1595 225.0093 0000868  46.7739 313.3356 15.80994806  3503
STARLINK-36780          
1 67866U 26034S   26066.25406038  .00754159  00000+0  34606-2 0  9997
2 67866  53.1594 223.4190 0001304 326.9803  33.1139 15.81126297  3557
STARLINK-36761          
1 67867U 26034T   26065.93721164  .00290107  00000+0  14150-2 0  9992
2 67867  53.1599 224.9989 0000872  47.6690 312.4406 15.81018195  3507
STARLINK-36762          
1 67868U 26034U   26066.25255645  .00324793  00000+0  15782-2 0  9996
2 67868  53.1595 223.4100 0000660 349.0050  11.0958 15.81006958  3550
STARLINK-36779          
1 67869U 26034V   26066.25180780  .00619042  00000+0  28903-2 0  9997
2 67869  53.1594 223.4047 0000720 315.1538  44.9426 15.81098045  3555
STARLINK-36770          
1 67870U 26034W   26066.25030956  .00314728  00000+0  15333-2 0  9994
2 67870  53.1598 223.3943 0000861 323.5928  36.5036 15.80977500  3552
STARLINK-36769          
1 67871U 26034X   26066.25105643  .00594905  00000+0  27870-2 0  9997
2 67871  53.1596 223.3995 0000562 288.6554  71.4408 15.81087448  3557
STARLINK-36786          
1 67872U 26034Y   26066.24955776  .00489941  00000+0  23275-2 0  9995
2 67872  53.1596 223.3895 0000267 359.7903   0.3120 15.81057806  3554
STARLINK-36783          
1 67873U 26034Z   26066.31202480  .00292525  00000+0  14300-2 0  9990
2 67873  53.1596 223.0671 0001103   8.2708 351.8333 15.80964045  3565
STARLINK-36730          
1 67874U 26034AA  26066.24805414  .00632221  00000+0  29450-2 0  9992
2 67874  53.1595 223.3792 0000604 323.3289  36.7693 15.81113958  3559
